{"spkid": "50605923", "covariance": {"elements": [{"label": "e", "name": "e", "sigma": 1.42251555217596e-07, "title": "eccentricity", "value": ".489862177165292", "units": null}, {"title": "perihelion distance", "value": ".9302651711278354", "units": "au", "sigma": 2.97898972531936e-07, "name": "q", "label": "q"}, {"label": "tp", "sigma": 0.000157484528325448, "name": "tp", "title": "time of perihelion passage", "value": "2456942.832324139745", "units": "TDB"}, {"sigma": 0.000139084191096227, "name": "om", "units": "deg", "value": "82.37647297785765", "title": "longitude of the ascending node", "label": "node"}, {"units": "deg", "title": "argument of perihelion", "value": "127.047726700065", "sigma": 6.13236440412059e-05, "name": "w", "label": "peri"}, {"label": "i", "name": "i", "sigma": 3.1554589275356e-05, "units": "deg", "title": "inclination", "value": "9.218235640860755"}], "data": [["2.023550496182484E-14", "-4.22486529837073E-14", "1.631568281517567E-11", "1.271076969314449E-11", "2.31456011718787E-13", "2.173424274866474E-12"], ["-4.22486529837073E-14", "8.874379783558346E-14", "-3.645189633580787E-11", "-2.853481766478804E-11", "-5.642736644256795E-13", "-5.058634571253113E-12"], ["1.631568281517567E-11", "-3.645189633580787E-11", "2.480137666188896E-8", "1.961042526388236E-8", "8.801043412110735E-10", "4.165556033070729E-9"], ["1.271076969314449E-11", "-2.853481766478804E-11", "1.961042526388236E-8", "1.93444122128918E-8", "-3.043579107799365E-9", "3.976323846045107E-9"], ["2.31456011718787E-13", "-5.642736644256795E-13", "8.801043412110735E-10", "-3.043579107799365E-9", "3.760589318492528E-9", "-4.651602049002255E-10"], ["2.173424274866474E-12", "-5.058634571253113E-12", "4.165556033070729E-9", "3.976323846045107E-9", "-4.651602049002255E-10", "9.956921043364135E-10"]], "labels": ["e", "q", "tp", "node", "peri", "i"], "epoch": "2457108.5"}, "elements": [{"label": "e", "sigma": "1.4792E-7", "name": "e", "units": null, "title": "eccentricity", "value": ".4899224234698598"}, {"title": "semi-major axis", "value": "1.822194258938758", "units": "au", "sigma": "8.8299E-8", "name": "a", "label": "a"}, {"sigma": "3.0963E-7", "name": "q", "title": "perihelion distance", "value": ".9294604315666164", "units": "au", "label": "q"}, {"sigma": "3.161E-5", "name": "i", "title": "inclination; angle with respect to x-y ecliptic plane", "value": "9.23480158306247", "units": "deg", "label": "i"}, {"units": "deg", "value": "82.17944356837272", "title": "longitude of the ascending node", "sigma": ".00013885", "name": "om", "label": "node"}, {"sigma": "6.1132E-5", "name": "w", "value": "127.3983868322148", "title": "argument of perihelion", "units": "deg", "label": "peri"}, {"sigma": "6.4206E-5", "name": "ma", "units": "deg", "title": "mean anomaly", "value": "264.7177935212434", "label": "M"}, {"name": "tp", "sigma": ".00017698", "units": "TDB", "value": "2461438.293370575704", "title": "time of perihelion passage", "label": "tp"}, {"label": "period", "sigma": "6.5304E-5", "name": "per", "title": "sidereal orbital period", "value": "898.4428107921655", "units": "d"}, {"label": "n", "value": ".4006932836187811", "title": "mean motion", "units": "deg/d", "sigma": "2.9125E-8", "name": "n"}, {"title": "aphelion distance", "value": "2.714928086310899", "units": "au", "sigma": "1.3156E-7", "name": "ad", "label": "Q"}], "epoch": "2461200.5"}